STARLINK-5034           
1 53888U 22119C   25068.51986313 -.00000359  00000+0 -44678-5 0  9996
2 53888  53.2166 163.6214 0001349  86.0204 274.0943 15.08838004136553
STARLINK-5031           
1 53889U 22119D   25068.51617379  .00000349  00000+0  40036-4 0  9990
2 53889  53.2161 163.5994 0001578  90.9868 269.1305 15.08838461136551
STARLINK-5050           
1 53890U 22119E   25068.54326484  .00002512  00000+0  17582-3 0  9992
2 53890  53.2173 128.1101 0001505  96.0272 264.0892 15.08845674136637
STARLINK-5041           
1 53891U 22119F   25068.57504777 -.00000539  00000+0 -15784-4 0  9991
2 53891  53.2169 163.2585 0001569  83.7382 276.3789 15.08835104136564
STARLINK-5046           
1 53892U 22119G   25068.49037314  .00000752  00000+0  65310-4 0  9996
2 53892  53.2165 163.4427 0001410  87.2541 272.8612 15.08841235136130
STARLINK-5052           
1 53893U 22119H   25068.70111089  .00003669  00000+0  24869-3 0  9996
2 53893  53.2182 162.6193 0001840 103.1830 256.9368 15.08813117136169
STARLINK-5043           
1 53894U 22119J   25068.63758657  .00000850  00000+0  71455-4 0  9990
2 53894  53.2162 162.9366 0001383  75.3079 284.8067 15.08848274136157
STARLINK-5032           
1 53895U 22119K   25068.56029225  .00004079  00000+0  27425-3 0  9999
2 53895  53.2175 163.1660 0001403  81.4696 278.6455 15.08838668136145
STARLINK-5037           
1 53896U 22119L   25068.48668991  .00000916  00000+0  75659-4 0  9999
2 53896  53.2187 163.4208 0001567  97.2069 262.9102 15.08840779136130
STARLINK-5035           
1 53897U 22119M   25068.70015014  .00012347  00000+0  79199-3 0  9990
2 53897  53.2156 162.6173 0001578  66.1786 293.9371 15.08862208136168
STARLINK-5044           
1 53898U 22119N   25068.54187302  .00001090  00000+0  86521-4 0  9994
2 53898  53.2184 163.0501 0001381 103.8425 256.2721 15.08847109136569
STARLINK-5042           
1 53899U 22119P   25068.54555703  .00000461  00000+0  47045-4 0  9998
2 53899  53.2164 163.0761 0001474  96.0965 264.0195 15.08846039136564
STARLINK-5045           
1 53900U 22119Q   25068.53450980  .00000562  00000+0  53394-4 0  9997
2 53900  53.2197 163.0046 0001671 106.7789 253.3386 15.08840580136569
STARLINK-5024           
1 53901U 22119R   25068.54651443  .00000971  00000+0  79085-4 0  9995
2 53901  53.2174 163.0759 0000989  97.4069 262.7035 15.08847255136565
STARLINK-5021           
1 53902U 22119S   25068.33672505 -.00000197  00000+0  57124-5 0  9997
2 53902  53.2152 114.0051 0001437  94.5449 265.5707 15.08837273137233
STARLINK-5022           
1 53903U 22119T   25068.55019382  .00002344  00000+0  16527-3 0  9995
2 53903  53.2181 163.1035 0001370  89.2248 270.8901 15.08849589136144
STARLINK-4787           
1 53904U 22119U   25068.66328909  .00003303  00000+0  22542-3 0  9996
2 53904  53.2180 162.3857 0001518 101.6328 258.4835 15.08851625136163
STARLINK-5003           
1 53905U 22119V   25068.52077949 -.00000330  00000+0 -26438-5 0  9996
2 53905  53.2166 153.6435 0001490  99.5373 260.5787 15.08836404136693
STARLINK-5054           
1 53906U 22119W   25068.53911962 -.00000923  00000+0 -39884-4 0  9996
2 53906  53.2171 153.0648 0001472  92.7325 267.3836 15.08839906136704
STARLINK-5057           
1 53908U 22119Y   25068.51339707  .00000499  00000+0  49461-4 0  9995
2 53908  53.2163 153.6027 0001542  98.1502 261.9666 15.08850077136690
STARLINK-4796           
1 53909U 22119Z   25068.52445835 -.00001134  00000+0 -53159-4 0  9995
2 53909  53.2174 153.6690 0001421  80.8919 279.2234 15.08839330136697
STARLINK-5056           
1 53910U 22119AA  25068.43826764  .00024956  00000+0  76103-3 0  9999
2 53910  53.2064 129.2507 0008369  43.5150 316.6512 15.33795643137034
STARLINK-5048           
1 53911U 22119AB  25068.51709298  .00000367  00000+0  41166-4 0  9993
2 53911  53.2169 153.6235 0001508 101.0194 259.0967 15.08838030136275
STARLINK-5059           
1 53912U 22119AC  25068.46551604  .00000464  00000+0  47238-4 0  9998
2 53912  53.2190 153.3223 0001699 107.5449 252.5729 15.08834491136696
STARLINK-5053           
1 53913U 22119AD  25068.49867494 -.00001520  00000+0 -77452-4 0  9996
2 53913  53.2169 153.5106 0001457  92.9609 267.1550 15.08832517136693
STARLINK-5040           
1 53914U 22119AE  25068.49498548  .00000140  00000+0  26893-4 0  9995
2 53914  53.2170 153.4944 0001528  88.2383 271.8784 15.08841142136696
STARLINK-5017           
1 53915U 22119AF  25068.50972608 -.00000323  00000+0 -21630-5 0  9992
2 53915  53.2186 153.5779 0001702  98.1380 261.9805 15.08842195136695
STARLINK-5051           
1 53916U 22119AG  25068.45998860  .00000908  00000+0  75097-4 0  9997
2 53916  53.2165 133.3547 0001495  93.2640 266.8524 15.08845958136980
STARLINK-5036           
1 53917U 22119AH  25068.50234851  .00000723  00000+0  63495-4 0  9991
2 53917  53.2164 153.5328 0001475  97.7258 262.3902 15.08849536136698
STARLINK-5012           
1 53918U 22119AJ  25068.49130519  .00000742  00000+0  64725-4 0  9994
2 53918  53.2167 153.4677 0001594  83.8973 276.2200 15.08829299136699
STARLINK-5023           
1 53919U 22119AK  25068.55385727 -.00000444  00000+0 -97758-5 0  9999
2 53919  53.2173 153.1461 0001451  88.9242 271.1916 15.08841464136283
STARLINK-5025           
1 53920U 22119AL  25068.50698998  .00001604  00000+0  11882-3 0  9992
2 53920  53.2182 153.5529 0001609 111.3802 248.7362 15.08843568136699
STARLINK-5002           
1 53922U 22119AN  25068.54279257  .00001466  00000+0  11016-3 0  9996
2 53922  53.2153 153.0796 0001285  99.3067 260.8070 15.08846403136702
STARLINK-5004           
1 53923U 22119AP  25068.55017162  .00004012  00000+0  27005-3 0  9998
2 53923  53.2173 153.1240 0001474  88.7513 271.3648 15.08832682136283
STARLINK-5001           
1 53924U 22119AQ  25068.48990873  .00000310  00000+0  37539-4 0  9991
2 53924  53.2156 148.4705 0001237  92.1561 267.9573 15.08853891136763
STARLINK-5011           
1 53925U 22119AR  25068.52806607  .00000951  00000+0  77833-4 0  9990
2 53925  53.2178 152.9942 0001512  93.6255 266.4910 15.08839012136705
STARLINK-5014           
1 53926U 22119AS  25068.47887055 -.00000960  00000+0 -42232-4 0  9998
2 53926  53.2166 148.3999 0001593  86.9148 273.2026 15.08837693136773
STARLINK-5008           
1 53927U 22119AT  25068.45081248  .00036318  00000+0  10907-2 0  9993
2 53927  53.1949 129.9067 0006407 303.8827  56.1566 15.34097179137029
STARLINK-5009           
1 53928U 22119AU  25068.48852802 -.00000085  00000+0  12750-4 0  9992
2 53928  53.2174 143.4710 0001501  86.9691 273.1473 15.08857513136412
STARLINK-5018           
1 53929U 22119AV  25068.53646688  .00004278  00000+0  28662-3 0  9997
2 53929  53.2173 153.7318 0001255  95.9996 264.1139 15.08847351136276
STARLINK-5010           
1 53930U 22119AW  25068.47380146  .00000800  00000+0  68352-4 0  9994
2 53930  53.2165 143.3803 0001452  86.8514 273.2644 15.08838867136833
STARLINK-5015           
1 53931U 22119AX  25068.59751871  .00000238  00000+0  33067-4 0  9995
2 53931  53.2170 137.7473 0001546  92.8589 267.2580 15.08854303136928
STARLINK-4772           
1 53932U 22119AY  25068.50558534  .00003198  00000+0  21887-3 0  9992
2 53932  53.2166 138.5866 0001387  79.9364 280.1785 15.08844946136911
STARLINK-4782           
1 53933U 22119AZ  25068.48484999  .00000163  00000+0  28364-4 0  9990
2 53933  53.2171 143.4481 0001669  97.0392 263.0790 15.08842830136838
STARLINK-4775           
1 53934U 22119BA  25068.50189701  .00002137  00000+0  15228-3 0  9994
2 53934  53.2183 138.5624 0001239  98.1489 261.9644 15.08845432136924
STARLINK-5000           
1 53935U 22119BB  25068.48438823  .00002094  00000+0  14957-3 0  9994
2 53935  53.2168 128.4698 0001452  91.2790 268.8369 15.08851103136622
STARLINK-4791           
1 53936U 22119BC  25068.47241675  .00001834  00000+0  13327-3 0  9992
2 53936  53.2171 138.3796 0001451  95.6142 264.5016 15.08848350136918
STARLINK-4633           
1 53964U 22125A   25068.40025245 -.00000464  00000+0 -11050-4 0  9998
2 53964  53.2180  64.1192 0001462  95.0775 265.0384 15.08837937134172
STARLINK-4578           
1 53965U 22125B   25068.39751959  .00001313  00000+0  10055-3 0  9990
2 53965  53.2168  64.1033 0001391  87.0285 273.0866 15.08849004134173
STARLINK-4635           
1 53966U 22125C   25068.39288954  .00000981  00000+0  79706-4 0  9990
2 53966  53.2169  64.0754 0001533  96.1215 263.9951 15.08842551134179
STARLINK-4634           
1 53967U 22125D   25068.38919188  .00000378  00000+0  41813-4 0  9998
2 53967  53.2178  64.0533 0001463  93.8566 266.2593 15.08844002134171
STARLINK-4629           
1 53968U 22125E   25068.37814325  .00000183  00000+0  29576-4 0  9991
2 53968  53.2171  63.9847 0001527  89.9105 270.2062 15.08841523134178
STARLINK-4468           
1 53969U 22125F   25068.38550888  .00001361  00000+0  10356-3 0  9998
2 53969  53.2171  64.0301 0001419  90.1621 269.9534 15.08842554134177
STARLINK-4567           
1 53970U 22125G   25068.38782064 -.00000948  00000+0 -41493-4 0  9992
2 53970  53.2168  59.0604 0001756  83.7957 276.3235 15.08840952134258
STARLINK-4639           
1 53971U 22125H   25068.38182356  .00000125  00000+0  25925-4 0  9998
2 53971  53.2170  64.0086 0001416  91.2025 268.9129 15.08843585134170
STARLINK-5156           
1 53973U 22125K   25068.24197650  .00000427  00000+0  44887-4 0  9991
2 53973  53.2168  64.5582 0001389  89.2775 270.8377 15.08842527134221
STARLINK-5159           
1 53974U 22125L   25068.21066506 -.00001186  00000+0 -56439-4 0  9995
2 53974  53.2175  44.4221 0001171  94.2990 265.8136 15.08848324134432
STARLINK-5137           
1 53975U 22125M   25068.34360782 -.00000469  00000+0 -11354-4 0  9993
2 53975  53.2175  58.7984 0001377  86.7322 273.3828 15.08845667134248
STARLINK-5134           
1 53976U 22125N   25068.19232996  .00001087  00000+0  86355-4 0  9990
2 53976  53.2176  45.0182 0001379  90.5925 269.5225 15.08857759134426
